IRIDIUM 171             
1 43929U 19002H   25201.34225465  .00000076  00000+0  20236-4 0  9999
2 43929  86.4009 132.5846 0001987  91.0904 269.0520 14.34218435341392
IRIDIUM 170             
1 43930U 19002J   25200.53121189  .00000730  00000+0  11181-3 0  9994
2 43930  86.6132 132.6701 0002580  77.5954 282.5552 14.72246980350313
IRIDIUM 167             
1 43931U 19002K   25200.56845929  .00000031  00000+0  41130-5 0  9996
2 43931  86.4001 132.6577 0001812  85.0665 275.0737 14.34217871341281
IRIDIUM 181             
1 56726U 23068S   25201.50397482  .00000171  00000+0  44881-4 0  9990
2 56726  86.4525 195.3244 0002310 103.7773 256.3685 14.43310880114597
IRIDIUM 177             
1 56727U 23068T   25201.53389110  .00000828  00000+0  10543-3 0  9999
2 56727  86.1993 126.3075 0002248  90.4471 269.7007 14.80228003117301
IRIDIUM 174             
1 56728U 23068U   25201.53837262  .00000768  00000+0  11788-3 0  9991
2 56728  86.6133 132.3639 0002976  76.4837 283.6711 14.72255416117221
IRIDIUM 178             
1 56729U 23068V   25200.64416711  .00000785  00000+0  99823-4 0  9991
2 56729  86.6590 164.2931 0002690  85.0592 275.0937 14.80237660117174
IRIDIUM 179             
1 56730U 23068W   25200.90920859  .00001003  00000+0  12858-3 0  9991
2 56730  86.6827 172.1501 0002429  87.2783 272.8717 14.80235761117212
